ONEWEB-0427             
1 50499U 21132AG  24281.41257371  .00000031  00000+0  45526-4 0  9992
2 50499  87.9049  98.4033 0001461  80.1463 279.9834 13.18687768140199
ONEWEB-0429             
1 50500U 21132AH  24281.47579393 -.00000042  00000+0 -13855-3 0  9995
2 50500  87.9056  98.4036 0001774  92.6076 267.5260 13.18685576140177
ONEWEB-0430             
1 50501U 21132AJ  24281.46471761  .00000086  00000+0  18567-3 0  9996
2 50501  87.9054  98.4066 0001980  81.9007 278.2350 13.18685406140219
ONEWEB-0432             
1 50502U 21132AK  24281.42046989  .00000004  00000+0 -21735-4 0  9996
2 50502  87.9052  98.4073 0001796  75.5532 284.5800 13.18685816140162
ONEWEB-0440             
1 50503U 21132AL  24281.48368889 -.00000025  00000+0 -96585-4 0  9998
2 50503  87.9056  98.3866 0001566 105.5547 254.5758 13.18683502140160
ONEWEB-0450             
1 50504U 21132AM  24281.47752094 -.00000110  00000+0 -31117-3 0  9997
2 50504  87.9056  98.4163 0002025  90.2667 269.8697 13.18686699140190
ONEWEB-0410             
1 51622U 22012A   24281.32466860  .00000207  00000+0  49934-3 0  9995
2 51622  87.9096 128.9299 0000610  12.5536 347.5610 13.17650859132339
ONEWEB-0411             
1 51623U 22012B   24281.35719749  .00000556  00000+0  15567-2 0  9997
2 51623  87.8958 159.2418 0002239  67.1577 292.9786 13.10371761128377
